{"type": "FeatureCollection", "features": [{"type": "Feature", "properties": {"norad_id": 25730, "name": "FENGYUN 1C", "group": "fengyun-1c-debris", "lat": -8.065757791518628, "lon": 64.14379491544264, "alt_km": 803.8512133376671, "timestamp": "2025-12-22T16:55:17.733948+00:00", "meta": {"OBJECT_NAME": "FENGYUN 1C", "OBJECT_ID": "1999-025A", "EPOCH": "2025-12-22T03:29:19.818528", "MEAN_MOTION": 14.26097462, "ECCENTRICITY": 0.00103112, "INCLINATION": 98.8825, "RA_OF_ASC_NODE": 62.3067, "ARG_OF_PERICENTER": 42.7115, "MEAN_ANOMALY": 317.4864, "EPHEMERIS_TYPE": 0, "CLASSIFICATION_TYPE": "U", "NORAD_CAT_ID": 25730, "ELEMENT_SET_NO": 999, "REV_AT_EPOCH": 37271, "BSTAR": 0.0010881382, "MEAN_MOTION_DOT": 2.558e-05, "MEAN_MOTION_DDOT": 0}, "tle": {"line1": "1 25730U 99025A   25356.14536827  .00002558  00000+0  10881-2 0  9998", "line2": "2 25730  98.8825  62.3067 0010311  42.7115 317.4864 14.26097462372713"}}, "geometry": {"type": "Point", "coordinates": [64.14379491544264, -8.065757791518628]}}, {"type": "Feature", "properties": {"norad_id": 29733, "name": "FENGYUN 1C DEB", "group": "fengyun-1c-debris", "lat": -14.275662347362514, "lon": 53.624993896405705, "alt_km": 1703.0093843079694, "timestamp": "2025-12-22T16:55:17.733969+00:00", "meta": {"OBJECT_NAME": "FENGYUN 1C DEB", "OBJECT_ID": "1999-025X", "EPOCH": "2025-12-22T02:21:08.992800", "MEAN_MOTION": 12.96487884, "ECCENTRICITY": 0.0569714, "INCLINATION": 99.224, "RA_OF_ASC_NODE": 50.7407, "ARG_OF_PERICENTER": 180.5037, "MEAN_ANOMALY": 211.6521, "EPHEMERIS_TYPE": 0, "CLASSIFICATION_TYPE": "U", "NORAD_CAT_ID": 29733, "ELEMENT_SET_NO": 999, "REV_AT_EPOCH": 89241, "BSTAR": 0.0013321457, "MEAN_MOTION_DOT": 7.71e-06, "MEAN_MOTION_DDOT": 0}, "tle": {"line1": "1 29733U 99025X   25356.09802075  .00000771  00000+0  13321-2 0  9997", "line2": "2 29733  99.2240  50.7407 0569714 180.5037 211.6521 12.96487884892410"}}, "geometry": {"type": "Point", "coordinates": [53.624993896405705, -14.275662347362514]}}, {"type": "Feature", "properties": {"norad_id": 29734, "name": "FENGYUN 1C DEB", "group": "fengyun-1c-debris", "lat": -21.369702323370525, "lon": -71.39601732799053, "alt_km": 835.9173298138066, "timestamp": "2025-12-22T16:55:17.733982+00:00", "meta": {"OBJECT_NAME": "FENGYUN 1C DEB", "OBJECT_ID": "1999-025Y", "EPOCH": "2025-12-22T02:13:11.580096", "MEAN_MOTION": 12.91354961, "ECCENTRICITY": 0.06156496, "INCLINATION": 99.1709, "RA_OF_ASC_NODE": 284.4678, "ARG_OF_PERICENTER": 350.5279, "MEAN_ANOMALY": 22.8035, "EPHEMERIS_TYPE": 0, "CLASSIFICATION_TYPE": "U", "NORAD_CAT_ID": 29734, "ELEMENT_SET_NO": 999, "REV_AT_EPOCH": 88669, "BSTAR": 0.0046555299, "MEAN_MOTION_DOT": 2.869e-05, "MEAN_MOTION_DDOT": 0}, "tle": {"line1": "1 29734U 99025Y   25356.09249514  .00002869  00000+0  46555-2 0  9996", "line2": "2 29734  99.1709 284.4678 0615649 350.5279  22.8035 12.91354961886691"}}, "geometry": {"type": "Point", "coordinates": [-71.39601732799053, -21.369702323370525]}}, {"type": "Feature", "properties": {"norad_id": 29735, "name": "FENGYUN 1C DEB", "group": "fengyun-1c-debris", "lat": 26.879988622158635, "lon": -94.81213147701737, "alt_km": 1649.4432289196257, "timestamp": "2025-12-22T16:55:17.733994+00:00", "meta": {"OBJECT_NAME": "FENGYUN 1C DEB", "OBJECT_ID": "1999-025Z", "EPOCH": "2025-12-21T18:09:52.133760", "MEAN_MOTION": 12.750632, "ECCENTRICITY": 0.06975286, "INCLINATION": 99.3915, "RA_OF_ASC_NODE": 269.2098, "ARG_OF_PERICENTER": 155.1826, "MEAN_ANOMALY": 208.458, "EPHEMERIS_TYPE": 0, "CLASSIFICATION_TYPE": "U", "NORAD_CAT_ID": 29735, "ELEMENT_SET_NO": 999, "REV_AT_EPOCH": 87530, "BSTAR": 0.0017618727, "MEAN_MOTION_DOT": 9.96e-06, "MEAN_MOTION_DDOT": 0}, "tle": {"line1": "1 29735U 99025Z   25355.75685340  .00000996  00000+0  17619-2 0  9998", "line2": "2 29735  99.3915 269.2098 0697528 155.1826 208.4580 12.75063200875301"}}, "geometry": {"type": "Point", "coordinates": [-94.81213147701737, 26.879988622158635]}}, {"type": "Feature", "properties": {"norad_id": 29736, "name": "FENGYUN 1C DEB", "group": "fengyun-1c-debris", "lat": -76.81438707304619, "lon": -50.81677301580735, "alt_km": 1335.1417932613767, "timestamp": "2025-12-22T16:55:17.734005+00:00", "meta": {"OBJECT_NAME": "FENGYUN 1C DEB", "OBJECT_ID": "1999-025AA", "EPOCH": "2025-12-22T00:59:39.600384", "MEAN_MOTION": 12.57506561, "ECCENTRICITY": 0.07247131, "INCLINATION": 99.4033, "RA_OF_ASC_NODE": 173.6592, "ARG_OF_PERICENTER": 178.7409, "MEAN_ANOMALY": 310.896, "EPHEMERIS_TYPE": 0, "CLASSIFICATION_TYPE": "U", "NORAD_CAT_ID": 29736, "ELEMENT_SET_NO": 999, "REV_AT_EPOCH": 86661, "BSTAR": 0.0016983309, "MEAN_MOTION_DOT": 7.43e-06, "MEAN_MOTION_DDOT": 0}, "tle": {"line1": "1 29736U 99025AA  25356.04143056  .00000743  00000+0  16983-2 0  9998", "line2": "2 29736  99.4033 173.6592 0724713 178.7409 310.8960 12.57506561866612"}}, "geometry": {"type": "Point", "coordinates": [-50.81677301580735, -76.81438707304619]}}, {"type": "Feature", "properties": {"norad_id": 29737, "name": "FENGYUN 1C DEB", "group": "fengyun-1c-debris", "lat": -75.23726027332577, "lon": -10.017203804510546, "alt_km": 1925.292956594646, "timestamp": "2025-12-22T16:55:17.734016+00:00", "meta": {"OBJECT_NAME": "FENGYUN 1C DEB", "OBJECT_ID": "1999-025AB", "EPOCH": "2025-12-21T20:39:30.157344", "MEAN_MOTION": 12.65677862, "ECCENTRICITY": 0.06955665, "INCLINATION": 99.5802, "RA_OF_ASC_NODE": 309.4222, "ARG_OF_PERICENTER": 118.6674, "MEAN_ANOMALY": 275.2056, "EPHEMERIS_TYPE": 0, "CLASSIFICATION_TYPE": "U", "NORAD_CAT_ID": 29737, "ELEMENT_SET_NO": 999, "REV_AT_EPOCH": 86984, "BSTAR": 0.0031512387, "MEAN_MOTION_DOT": 1.506e-05, "MEAN_MOTION_DDOT": 0}, "tle": {"line1": "1 29737U 99025AB  25355.86076571  .00001506  00000+0  31512-2 0  9998", "line2": "2 29737  99.5802 309.4222 0695566 118.6674 275.2056 12.65677862869847"}}, "geometry": {"type": "Point", "coordinates": [-10.017203804510546, -75.23726027332577]}}, {"type": "Feature", "properties": {"norad_id": 29738, "name": "FENGYUN 1C DEB", "group": "fengyun-1c-debris", "lat": 44.992590447278936, "lon": -8.634861754109982, "alt_km": 1894.5985124807748, "timestamp": "2025-12-22T16:55:17.734027+00:00", "meta": {"OBJECT_NAME": "FENGYUN 1C DEB", "OBJECT_ID": "1999-025AC", "EPOCH": "2025-12-21T09:39:34.977888", "MEAN_MOTION": 12.61069881, "ECCENTRICITY": 0.08651603, "INCLINATION": 99.4094, "RA_OF_ASC_NODE": 160.7582, "ARG_OF_PERICENTER": 275.7324, "MEAN_ANOMALY": 74.5864, "EPHEMERIS_TYPE": 0, "CLASSIFICATION_TYPE": "U", "NORAD_CAT_ID": 29738, "ELEMENT_SET_NO": 999, "REV_AT_EPOCH": 86326, "BSTAR": 0.0024502527, "MEAN_MOTION_DOT": 1.835e-05, "MEAN_MOTION_DDOT": 0}, "tle": {"line1": "1 29738U 99025AC  25355.40248817  .00001835  00000+0  24503-2 0  9990", "line2": "2 29738  99.4094 160.7582 0865160 275.7324  74.5864 12.61069881863262"}}, "geometry": {"type": "Point", "coordinates": [-8.634861754109982, 44.992590447278936]}}, {"type": "Feature", "properties": {"norad_id": 29740, "name": "FENGYUN 1C DEB", "group": "fengyun-1c-debris", "lat": 46.99933225551113, "lon": -164.41082748769367, "alt_km": 2105.150152933561, "timestamp": "2025-12-22T16:55:17.734039+00:00", "meta": {"OBJECT_NAME": "FENGYUN 1C DEB", "OBJECT_ID": "1999-025AE", "EPOCH": "2025-12-21T12:47:17.642112", "MEAN_MOTION": 12.08326026, "ECCENTRICITY": 0.0973888, "INCLINATION": 99.0453, "RA_OF_ASC_NODE": 204.5858, "ARG_OF_PERICENTER": 181.1233, "MEAN_ANOMALY": 178.7625, "EPHEMERIS_TYPE": 0, "CLASSIFICATION_TYPE": "U", "NORAD_CAT_ID": 29740, "ELEMENT_SET_NO": 999, "REV_AT_EPOCH": 83041, "BSTAR": -0.0011538, "MEAN_MOTION_DOT": -4.69e-06, "MEAN_MOTION_DDOT": 0}, "tle": {"line1": "1 29740U 99025AE  25355.53284308 -.00000469  00000+0 -11538-2 0  9990", "line2": "2 29740  99.0453 204.5858 0973888 181.1233 178.7625 12.08326026830410"}}, "geometry": {"type": "Point", "coordinates": [-164.41082748769367, 46.99933225551113]}}, {"type": "Feature", "properties": {"norad_id": 29741, "name": "FENGYUN 1C DEB", "group": "fengyun-1c-debris", "lat": 19.124332191102678, "lon": -135.00303761733085, "alt_km": 912.8383530684878, "timestamp": "2025-12-22T16:55:17.734073+00:00", "meta": {"OBJECT_NAME": "FENGYUN 1C DEB", "OBJECT_ID": "1999-025AF", "EPOCH": "2025-12-22T03:34:35.841216", "MEAN_MOTION": 12.0097679, "ECCENTRICITY": 0.10258291, "INCLINATION": 99.1731, "RA_OF_ASC_NODE": 227.8105, "ARG_OF_PERICENTER": 45.445, "MEAN_ANOMALY": 95.6957, "EPHEMERIS_TYPE": 0, "CLASSIFICATION_TYPE": "U", "NORAD_CAT_ID": 29741, "ELEMENT_SET_NO": 999, "REV_AT_EPOCH": 52296, "BSTAR": 0.0058979518, "MEAN_MOTION_DOT": 2.301e-05, "MEAN_MOTION_DDOT": 0}, "tle": {"line1": "1 29741U 99025AF  25356.14902594  .00002301  00000+0  58980-2 0  9990", "line2": "2 29741  99.1731 227.8105 1025829  45.4450  95.6957 12.00976790522965"}}, "geometry": {"type": "Point", "coordinates": [-135.00303761733085, 19.124332191102678]}}, {"type": "Feature", "properties": {"norad_id": 29748, "name": "FENGYUN 1C DEB", "group": "fengyun-1c-debris", "lat": -77.73493328904748, "lon": -22.417787444795387, "alt_km": 1507.3399147200253, "timestamp": "2025-12-22T16:55:17.734099+00:00", "meta": {"OBJECT_NAME": "FENGYUN 1C DEB", "OBJECT_ID": "1999-025AN", "EPOCH": "2025-12-18T18:32:21.128928", "MEAN_MOTION": 11.90388386, "ECCENTRICITY": 0.08620111, "INCLINATION": 99.7832, "RA_OF_ASC_NODE": 282.1412, "ARG_OF_PERICENTER": 0.8877, "MEAN_ANOMALY": 359.3487, "EPHEMERIS_TYPE": 0, "CLASSIFICATION_TYPE": "U", "NORAD_CAT_ID": 29748, "ELEMENT_SET_NO": 999, "REV_AT_EPOCH": 78805, "BSTAR": 0.10881389, "MEAN_MOTION_DOT": 0.00022252, "MEAN_MOTION_DDOT": 0}, "tle": {"line1": "1 29748U 99025AN  25352.77246677  .00022252  00000+0  10881+0 0  9997", "line2": "2 29748  99.7832 282.1412 0862011   0.8877 359.3487 11.90388386788052"}}, "geometry": {"type": "Point", "coordinates": [-22.417787444795387, -77.73493328904748]}}]}